{"type":"FeatureCollection","features":[{"type":"Feature","geometry":{"type":"MultiPolygon","coordinates":[[[[117.237,3.761],[117.215,3.768],[117.181,3.749],[117.138,3.754],[117.043,3.735],[116.968,3.737],[116.944,3.75],[116.881,3.732],[116.833,3.694],[116.759,3.694],[116.743,3.682],[116.737,3.656],[116.715,3.642],[116.716,3.631],[116.738,3.606],[116.719,3.599],[116.698,3.572],[116.696,3.562],[116.712,3.55],[116.693,3.55],[116.677,3.533],[116.676,3.517],[116.69,3.499],[116.702,3.451],[116.697,3.433],[116.71,3.424],[116.696,3.399],[116.705,3.369],[116.735,3.37],[116.742,3.382],[116.761,3.385],[116.776,3.382],[116.785,3.371],[116.819,3.387],[116.9,3.397],[116.924,3.384],[116.967,3.404],[117.003,3.391],[117.048,3.407],[117.063,3.403],[117.067,3.388],[117.091,3.39],[117.095,3.366],[117.111,3.362],[117.116,3.348],[117.133,3.344],[117.173,3.358],[117.186,3.347],[117.187,3.335],[117.226,3.337],[117.247,3.314],[117.283,3.393],[117.278,3.404],[117.289,3.428],[117.299,3.424],[117.304,3.41],[117.312,3.413],[117.328,3.402],[117.33,3.376],[117.353,3.367],[117.372,3.371],[117.372,3.356],[117.392,3.342],[117.39,3.324],[117.41,3.327],[117.414,3.389],[117.394,3.406],[117.369,3.413],[117.363,3.43],[117.359,3.427],[117.358,3.447],[117.304,3.447],[117.302,3.452],[117.322,3.462],[117.282,3.46],[117.278,3.467],[117.298,3.466],[117.253,3.471],[117.212,3.5],[117.193,3.537],[117.207,3.57],[117.227,3.592],[117.221,3.609],[117.132,3.621],[117.095,3.608],[117.072,3.611],[117.027,3.587],[117.0,3.588],[117.0,3.598],[117.017,3.596],[117.061,3.629],[117.087,3.638],[117.169,3.644],[117.261,3.617],[117.323,3.624],[117.379,3.64],[117.428,3.625],[117.436,3.642],[117.457,3.635],[117.475,3.648],[117.485,3.636],[117.496,3.64],[117.485,3.673],[117.468,3.667],[117.455,3.676],[117.429,3.671],[117.427,3.693],[117.403,3.696],[117.392,3.71],[117.291,3.719],[117.262,3.733],[117.249,3.731],[117.234,3.75],[117.237,3.761]]],[[[117.417,3.362],[117.42,3.372],[117.417,3.383],[117.417,3.362]]],[[[117.417,3.421],[117.367,3.441],[117.37,3.415],[117.397,3.407],[117.416,3.39],[117.422,3.373],[117.418,3.339],[117.436,3.35],[117.444,3.399],[117.438,3.418],[117.417,3.421]]],[[[117.4,3.452],[117.395,3.451],[117.418,3.444],[117.4,3.452]]],[[[117.434,3.454],[117.428,3.454],[117.46,3.438],[117.454,3.449],[117.434,3.454]]],[[[117.345,3.47],[117.336,3.474],[117.328,3.474],[117.345,3.47]]],[[[117.332,3.482],[117.324,3.488],[117.317,3.484],[117.332,3.482]]],[[[117.446,3.532],[117.444,3.535],[117.444,3.533],[117.446,3.532]]],[[[117.41,3.55],[117.412,3.558],[117.404,3.561],[117.41,3.55]]],[[[117.326,3.572],[117.333,3.577],[117.32,3.572],[117.326,3.572]]],[[[117.315,3.571],[117.335,3.583],[117.312,3.581],[117.315,3.571]]],[[[117.396,3.585],[117.405,3.568],[117.416,3.566],[117.413,3.583],[117.396,3.585]]],[[[117.386,3.586],[117.367,3.58],[117.403,3.569],[117.386,3.586]]],[[[117.248,3.588],[117.22,3.572],[117.201,3.54],[117.231,3.497],[117.293,3.484],[117.325,3.491],[117.449,3.455],[117.483,3.432],[117.491,3.458],[117.518,3.481],[117.505,3.497],[117.485,3.492],[117.457,3.509],[117.44,3.505],[117.438,3.529],[117.407,3.538],[117.371,3.563],[117.3,3.56],[117.276,3.58],[117.278,3.588],[117.248,3.588]]],[[[117.422,3.601],[117.39,3.614],[117.292,3.597],[117.303,3.578],[117.327,3.587],[117.397,3.59],[117.417,3.584],[117.436,3.562],[117.46,3.569],[117.456,3.582],[117.422,3.601]]],[[[117.545,3.581],[117.549,3.599],[117.543,3.607],[117.514,3.612],[117.507,3.594],[117.545,3.581]]],[[[117.059,3.616],[117.05,3.616],[117.04,3.605],[117.059,3.616]]],[[[117.37,3.623],[117.319,3.614],[117.358,3.613],[117.37,3.623]]],[[[117.101,3.615],[117.103,3.624],[117.091,3.619],[117.101,3.615]]],[[[117.376,3.629],[117.385,3.631],[117.367,3.632],[117.376,3.629]]],[[[117.72,3.635],[117.72,3.636],[117.719,3.637],[117.72,3.635]]],[[[117.403,3.631],[117.393,3.637],[117.383,3.636],[117.403,3.631]]],[[[117.482,3.637],[117.476,3.647],[117.457,3.633],[117.435,3.641],[117.43,3.624],[117.496,3.598],[117.518,3.636],[117.482,3.637]]],[[[117.493,3.668],[117.489,3.655],[117.497,3.64],[117.521,3.639],[117.512,3.659],[117.493,3.668]]],[[[117.491,3.684],[117.493,3.699],[117.482,3.709],[117.449,3.699],[117.428,3.677],[117.457,3.679],[117.467,3.671],[117.478,3.679],[117.49,3.677],[117.491,3.684]]],[[[117.774,3.743],[117.764,3.749],[117.749,3.752],[117.774,3.743]]],[[[117.775,3.753],[117.742,3.76],[117.801,3.732],[117.814,3.734],[117.809,3.753],[117.775,3.753]]],[[[117.597,3.78],[117.596,3.796],[117.578,3.781],[117.558,3.784],[117.532,3.767],[117.522,3.775],[117.503,3.765],[117.488,3.769],[117.477,3.756],[117.485,3.744],[117.483,3.728],[117.49,3.724],[117.486,3.717],[117.513,3.682],[117.591,3.628],[117.667,3.615],[117.717,3.628],[117.719,3.638],[117.737,3.632],[117.761,3.657],[117.769,3.682],[117.826,3.705],[117.815,3.721],[117.691,3.765],[117.666,3.786],[117.651,3.77],[117.628,3.779],[117.601,3.774],[117.597,3.78]]]]},"properties":{"namobj":"Tana Tidung","wadmkk":"Tana Tidung","wadmpr":"Kalimantan Utara","kdpkab":"65.04"}},{"type":"Feature","geometry":{"type":"MultiPolygon","coordinates":[[[[117.619,3.439],[117.549,3.442],[117.52,3.416],[117.515,3.381],[117.542,3.326],[117.585,3.297],[117.587,3.288],[117.612,3.279],[117.621,3.252],[117.643,3.239],[117.656,3.254],[117.657,3.326],[117.668,3.363],[117.669,3.404],[117.666,3.415],[117.619,3.439]]],[[[117.526,3.343],[117.526,3.349],[117.522,3.348],[117.526,3.343]]],[[[117.524,3.349],[117.523,3.35],[117.523,3.349],[117.524,3.349]]]]},"properties":{"namobj":"Kota Tarakan","wadmkk":"Kota Tarakan","wadmpr":"Kalimantan Utara","kdpkab":"65.71"}},{"type":"Feature","geometry":{"type":"MultiPolygon","coordinates":[[[[116.134,4.121],[116.112,4.112],[116.085,4.118],[116.071,4.099],[116.033,4.081],[115.982,4.1],[115.974,4.117],[115.965,4.118],[115.96,4.106],[115.958,4.076],[115.994,4.059],[116.002,4.032],[116.021,4.009],[116.008,3.94],[115.989,3.924],[115.957,3.914],[115.943,3.884],[115.914,3.878],[115.908,3.844],[115.925,3.835],[115.923,3.804],[115.944,3.794],[115.948,3.776],[115.943,3.761],[115.926,3.751],[115.911,3.694],[115.932,3.64],[115.953,3.618],[115.959,3.572],[115.973,3.563],[115.964,3.519],[115.939,3.527],[115.921,3.499],[115.899,3.498],[115.878,3.458],[115.857,3.469],[115.849,3.492],[115.834,3.488],[115.814,3.5],[115.802,3.467],[115.785,3.461],[115.77,3.466],[115.757,3.444],[115.722,3.445],[115.696,3.407],[115.658,3.44],[115.624,3.408],[115.61,3.447],[115.585,3.449],[115.579,3.419],[115.556,3.393],[115.544,3.363],[115.548,3.328],[115.532,3.318],[115.53,3.297],[115.537,3.285],[115.529,3.28],[115.523,3.25],[115.534,3.226],[115.516,3.224],[115.52,3.191],[115.562,3.17],[115.563,3.15],[115.549,3.141],[115.535,3.142],[115.527,3.117],[115.514,3.109],[115.516,3.057],[115.497,3.028],[115.485,3.018],[115.453,3.028],[115.441,3.024],[115.438,3.014],[115.427,3.016],[115.394,2.98],[115.378,2.986],[115.331,2.975],[115.324,2.982],[115.321,3.012],[115.308,3.019],[115.299,3.041],[115.284,3.047],[115.246,2.981],[115.25,2.966],[115.211,2.958],[115.19,2.934],[115.164,2.927],[115.148,2.908],[115.152,2.871],[115.142,2.869],[115.119,2.837],[115.091,2.824],[115.126,2.802],[115.142,2.805],[115.154,2.79],[115.14,2.775],[115.138,2.744],[115.1,2.717],[115.095,2.698],[115.115,2.689],[115.109,2.68],[115.122,2.651],[115.112,2.648],[115.113,2.637],[115.102,2.625],[115.092,2.624],[115.092,2.606],[115.107,2.6],[115.116,2.583],[115.135,2.585],[115.152,2.608],[115.178,2.61],[115.194,2.582],[115.212,2.574],[115.223,2.542],[115.238,2.535],[115.251,2.541],[115.243,2.499],[115.204,2.471],[115.189,2.483],[115.144,2.476],[115.108,2.441],[115.098,2.425],[115.1,2.405],[115.053,2.406],[115.053,2.387],[115.039,2.392],[115.026,2.365],[115.009,2.363],[114.998,2.349],[114.974,2.367],[114.961,2.365],[114.948,2.316],[114.967,2.289],[114.953,2.279],[114.937,2.28],[114.917,2.255],[114.871,2.264],[114.827,2.245],[114.816,2.264],[114.799,2.249],[114.802,2.236],[114.79,2.223],[114.787,2.2],[114.741,2.191],[114.734,2.147],[114.74,2.132],[114.791,2.146],[114.82,2.13],[114.819,2.107],[114.8,2.089],[114.812,2.062],[114.793,2.058],[114.809,2.025],[114.859,2.044],[114.888,2.023],[114.874,2.014],[114.871,1.989],[114.852,1.972],[114.851,1.962],[114.853,1.943],[114.882,1.914],[114.856,1.895],[114.82,1.893],[114.819,1.881],[114.794,1.849],[114.771,1.85],[114.747,1.869],[114.718,1.856],[114.727,1.831],[114.694,1.81],[114.715,1.785],[114.705,1.761],[114.719,1.719],[114.71,1.706],[114.709,1.638],[114.693,1.633],[114.681,1.61],[114.655,1.599],[114.652,1.589],[114.61,1.575],[114.6,1.531],[114.616,1.516],[114.607,1.488],[114.594,1.481],[114.587,1.447],[114.565,1.426],[114.577,1.412],[114.572,1.389],[114.61,1.39],[114.617,1.363],[114.67,1.352],[114.69,1.36],[114.705,1.351],[114.7,1.339],[114.712,1.335],[114.728,1.313],[114.745,1.327],[114.76,1.326],[114.765,1.345],[114.796,1.367],[114.802,1.382],[114.842,1.402],[114.867,1.404],[114.88,1.418],[114.908,1.418],[114.909,1.403],[114.931,1.402],[114.954,1.373],[114.988,1.354],[115.017,1.348],[115.03,1.309],[115.046,1.293],[115.045,1.267],[115.078,1.269],[115.098,1.25],[115.094,1.212],[115.099,1.199],[115.117,1.192],[115.114,1.181],[115.182,1.197],[115.21,1.177],[115.232,1.173],[115.247,1.181],[115.274,1.161],[115.28,1.134],[115.368,1.114],[115.381,1.118],[115.401,1.146],[115.418,1.152],[115.405,1.181],[115.411,1.193],[115.422,1.191],[115.428,1.223],[115.485,1.245],[115.487,1.252],[115.554,1.265],[115.587,1.281],[115.647,1.282],[115.659,1.29],[115.686,1.282],[115.701,1.264],[115.71,1.266],[115.711,1.275],[115.727,1.26],[115.773,1.264],[115.773,1.308],[115.807,1.325],[115.829,1.352],[115.835,1.379],[115.857,1.401],[115.854,1.434],[115.914,1.477],[115.957,1.491],[115.956,1.504],[115.973,1.531],[116.007,1.525],[116.028,1.551],[116.041,1.557],[116.046,1.579],[116.036,1.606],[116.069,1.648],[116.102,1.667],[116.115,1.655],[116.133,1.668],[116.131,1.679],[116.142,1.687],[116.15,1.727],[116.162,1.744],[116.159,1.77],[116.17,1.782],[116.184,1.832],[116.175,1.902],[116.199,1.951],[116.194,1.986],[116.231,2.013],[116.235,2.035],[116.227,2.052],[116.212,2.061],[116.223,2.1],[116.217,2.113],[116.19,2.125],[116.157,2.124],[116.148,2.153],[116.126,2.165],[116.095,2.17],[116.07,2.161],[116.056,2.145],[116.011,2.192],[115.989,2.262],[116.035,2.256],[116.062,2.303],[116.06,2.316],[116.08,2.333],[116.086,2.348],[116.104,2.357],[116.123,2.394],[116.178,2.405],[116.188,2.414],[116.195,2.44],[116.229,2.483],[116.242,2.489],[116.26,2.478],[116.271,2.484],[116.304,2.546],[116.309,2.574],[116.297,2.588],[116.292,2.632],[116.302,2.637],[116.326,2.691],[116.363,2.715],[116.408,2.767],[116.432,2.777],[116.436,2.812],[116.455,2.826],[116.493,2.828],[116.55,2.879],[116.584,2.89],[116.587,2.917],[116.603,2.918],[116.614,2.929],[116.608,2.949],[116.637,2.974],[116.658,2.974],[116.663,3.007],[116.695,3.029],[116.717,3.025],[116.745,3.041],[116.749,3.067],[116.725,3.103],[116.744,3.154],[116.741,3.171],[116.768,3.164],[116.78,3.228],[116.794,3.235],[116.78,3.274],[116.782,3.291],[116.761,3.305],[116.751,3.334],[116.741,3.341],[116.732,3.333],[116.724,3.351],[116.71,3.354],[116.696,3.399],[116.71,3.424],[116.697,3.433],[116.702,3.451],[116.69,3.499],[116.676,3.518],[116.685,3.544],[116.712,3.55],[116.696,3.562],[116.698,3.573],[116.719,3.599],[116.738,3.606],[116.714,3.639],[116.737,3.656],[116.743,3.681],[116.731,3.683],[116.718,3.699],[116.696,3.702],[116.673,3.738],[116.682,3.749],[116.663,3.776],[116.646,3.785],[116.643,3.798],[116.626,3.799],[116.593,3.827],[116.564,3.834],[116.557,3.845],[116.533,3.848],[116.517,3.858],[116.495,3.857],[116.464,3.881],[116.425,3.881],[116.407,3.896],[116.384,3.944],[116.382,3.981],[116.391,3.992],[116.369,3.994],[116.356,4.008],[116.355,4.036],[116.34,4.042],[116.323,4.066],[116.308,4.051],[116.283,4.059],[116.275,4.04],[116.253,4.043],[116.237,4.048],[116.222,4.077],[116.186,4.078],[116.16,4.093],[116.167,4.112],[116.134,4.121]]],[[[114.563,1.432],[114.563,1.433],[114.562,1.434],[114.563,1.432]]]]},"properties":{"namobj":"Malinau","wadmkk":"Malinau","wadmpr":"Kalimantan Utara","kdpkab":"65.02"}},{"type":"Feature","geometry":{"type":"MultiPolygon","coordinates":[[[[116.569,4.408],[116.564,4.39],[116.536,4.376],[116.53,4.348],[116.541,4.335],[116.537,4.321],[116.488,4.335],[116.479,4.303],[116.441,4.288],[116.437,4.323],[116.429,4.33],[116.418,4.326],[116.404,4.359],[116.386,4.359],[116.379,4.376],[116.354,4.389],[116.324,4.384],[116.307,4.369],[116.292,4.373],[116.279,4.36],[116.261,4.362],[116.252,4.377],[116.22,4.382],[116.204,4.373],[116.167,4.391],[116.155,4.339],[116.13,4.329],[116.111,4.332],[116.086,4.305],[116.081,4.278],[116.072,4.277],[116.034,4.295],[116.031,4.329],[116.007,4.335],[116.003,4.348],[115.977,4.358],[115.928,4.353],[115.907,4.393],[115.879,4.392],[115.869,4.373],[115.873,4.354],[115.863,4.343],[115.875,4.291],[115.825,4.263],[115.829,4.235],[115.802,4.22],[115.796,4.238],[115.766,4.245],[115.753,4.213],[115.732,4.209],[115.728,4.189],[115.703,4.195],[115.682,4.161],[115.677,4.09],[115.652,4.033],[115.649,3.987],[115.64,3.962],[115.617,3.937],[115.589,3.943],[115.558,3.918],[115.582,3.886],[115.595,3.891],[115.597,3.879],[115.616,3.875],[115.618,3.868],[115.613,3.824],[115.577,3.747],[115.58,3.728],[115.574,3.719],[115.583,3.698],[115.572,3.683],[115.571,3.652],[115.581,3.634],[115.575,3.627],[115.578,3.599],[115.588,3.579],[115.603,3.577],[115.612,3.548],[115.609,3.511],[115.635,3.474],[115.637,3.456],[115.671,3.434],[115.687,3.409],[115.698,3.407],[115.722,3.445],[115.757,3.444],[115.77,3.466],[115.785,3.461],[115.802,3.467],[115.814,3.5],[115.834,3.488],[115.849,3.492],[115.857,3.469],[115.878,3.458],[115.901,3.5],[115.921,3.499],[115.939,3.527],[115.958,3.518],[115.971,3.529],[115.973,3.563],[115.959,3.572],[115.954,3.617],[115.932,3.64],[115.912,3.683],[115.926,3.751],[115.943,3.761],[115.948,3.776],[115.944,3.794],[115.923,3.804],[115.925,3.835],[115.908,3.844],[115.914,3.878],[115.943,3.884],[115.957,3.914],[115.998,3.931],[116.016,3.963],[116.021,4.009],[116.002,4.032],[115.994,4.059],[115.958,4.076],[115.965,4.118],[115.977,4.115],[115.992,4.095],[116.033,4.081],[116.071,4.099],[116.085,4.118],[116.112,4.112],[116.132,4.122],[116.145,4.113],[116.167,4.112],[116.162,4.091],[116.2,4.074],[116.217,4.08],[116.236,4.059],[116.237,4.048],[116.272,4.04],[116.283,4.059],[116.308,4.051],[116.323,4.066],[116.34,4.042],[116.355,4.036],[116.356,4.008],[116.369,3.994],[116.391,3.992],[116.382,3.981],[116.384,3.944],[116.407,3.896],[116.425,3.881],[116.464,3.881],[116.495,3.857],[116.517,3.858],[116.533,3.848],[116.557,3.845],[116.564,3.834],[116.593,3.827],[116.626,3.799],[116.643,3.798],[116.646,3.785],[116.663,3.776],[116.682,3.749],[116.673,3.738],[116.696,3.702],[116.718,3.699],[116.731,3.683],[116.743,3.681],[116.761,3.695],[116.833,3.694],[116.881,3.732],[116.944,3.75],[116.968,3.737],[117.043,3.735],[117.138,3.754],[117.181,3.749],[117.22,3.769],[117.237,3.762],[117.234,3.75],[117.249,3.731],[117.262,3.733],[117.291,3.719],[117.392,3.71],[117.403,3.696],[117.436,3.69],[117.443,3.701],[117.49,3.722],[117.477,3.753],[117.488,3.769],[117.503,3.765],[117.522,3.775],[117.532,3.767],[117.558,3.784],[117.578,3.781],[117.596,3.796],[117.601,3.774],[117.628,3.779],[117.651,3.77],[117.666,3.786],[117.784,3.755],[117.792,3.759],[117.779,3.767],[117.779,3.786],[117.732,3.811],[117.734,3.837],[117.695,3.867],[117.669,3.879],[117.597,3.877],[117.563,3.912],[117.533,3.925],[117.487,3.915],[117.457,3.93],[117.464,3.961],[117.44,4.004],[117.385,4.027],[117.375,4.027],[117.376,4.015],[117.365,4.014],[117.37,4.033],[117.383,4.037],[117.416,4.029],[117.438,4.013],[117.474,4.071],[117.468,4.083],[117.418,4.094],[117.413,4.107],[117.419,4.113],[117.391,4.136],[117.395,4.145],[117.419,4.147],[117.416,4.14],[117.518,4.099],[117.548,4.142],[117.583,4.159],[117.593,4.172],[117.566,4.18],[117.549,4.168],[117.539,4.171],[117.53,4.16],[117.508,4.171],[117.477,4.169],[117.458,4.178],[117.426,4.216],[117.427,4.232],[117.411,4.237],[117.412,4.25],[117.387,4.258],[117.372,4.286],[117.342,4.29],[117.322,4.303],[117.311,4.299],[117.308,4.309],[117.296,4.31],[117.285,4.334],[117.248,4.374],[117.227,4.369],[117.2,4.335],[117.169,4.337],[117.154,4.354],[117.108,4.332],[117.043,4.347],[117.031,4.341],[117.021,4.319],[117.006,4.321],[117.008,4.347],[116.968,4.337],[116.955,4.356],[116.911,4.369],[116.868,4.337],[116.851,4.34],[116.843,4.326],[116.835,4.326],[116.816,4.35],[116.806,4.351],[116.797,4.339],[116.785,4.342],[116.783,4.359],[116.752,4.391],[116.741,4.382],[116.734,4.353],[116.703,4.334],[116.667,4.353],[116.653,4.337],[116.631,4.336],[116.619,4.339],[116.614,4.377],[116.588,4.374],[116.569,4.408]]],[[[117.799,3.782],[117.781,3.785],[117.78,3.772],[117.797,3.759],[117.816,3.758],[117.815,3.778],[117.799,3.782]]],[[[117.748,3.872],[117.745,3.873],[117.743,3.872],[117.748,3.872]]],[[[117.735,3.873],[117.72,3.873],[117.71,3.861],[117.737,3.838],[117.741,3.808],[117.784,3.79],[117.833,3.785],[117.826,3.81],[117.783,3.836],[117.755,3.869],[117.735,3.873]]],[[[117.522,4.032],[117.496,4.053],[117.443,4.006],[117.466,3.961],[117.46,3.931],[117.497,3.916],[117.526,3.93],[117.55,3.925],[117.602,3.883],[117.682,3.887],[117.683,3.914],[117.639,3.912],[117.597,3.933],[117.578,3.97],[117.555,3.985],[117.548,4.015],[117.522,4.032]]],[[[117.497,4.063],[117.482,4.062],[117.479,4.048],[117.497,4.063]]],[[[117.482,4.079],[117.482,4.08],[117.482,4.079],[117.482,4.079]]],[[[117.554,4.099],[117.588,4.142],[117.546,4.133],[117.536,4.109],[117.554,4.099]]],[[[117.66,4.147],[117.629,4.135],[117.589,4.079],[117.603,4.011],[117.626,3.989],[117.672,3.966],[117.726,3.986],[117.727,4.012],[117.754,4.061],[117.66,4.147]]],[[[117.748,4.167],[117.683,4.167],[117.731,4.121],[117.861,4.029],[117.896,4.043],[117.905,4.04],[117.926,4.061],[117.917,4.084],[117.926,4.127],[117.902,4.166],[117.748,4.167]]]]},"properties":{"namobj":"Nunukan","wadmkk":"Nunukan","wadmpr":"Kalimantan Utara","kdpkab":"65.03"}},{"type":"Feature","geometry":{"type":"MultiPolygon","coordinates":[[[[117.305,3.409],[117.297,3.426],[117.283,3.425],[117.278,3.402],[117.283,3.394],[117.247,3.314],[117.226,3.337],[117.187,3.335],[117.186,3.347],[117.173,3.358],[117.133,3.344],[117.116,3.348],[117.111,3.362],[117.095,3.366],[117.091,3.39],[117.067,3.388],[117.063,3.403],[117.048,3.407],[117.003,3.391],[116.967,3.404],[116.924,3.384],[116.9,3.397],[116.819,3.387],[116.785,3.371],[116.776,3.382],[116.761,3.385],[116.742,3.382],[116.735,3.37],[116.707,3.371],[116.71,3.354],[116.724,3.351],[116.732,3.333],[116.741,3.341],[116.751,3.334],[116.761,3.305],[116.782,3.291],[116.78,3.274],[116.794,3.236],[116.78,3.228],[116.768,3.164],[116.741,3.171],[116.744,3.154],[116.725,3.103],[116.749,3.067],[116.745,3.042],[116.717,3.025],[116.695,3.029],[116.663,3.007],[116.658,2.974],[116.637,2.974],[116.608,2.949],[116.614,2.929],[116.603,2.918],[116.587,2.917],[116.584,2.89],[116.55,2.879],[116.493,2.828],[116.455,2.826],[116.436,2.812],[116.432,2.777],[116.408,2.767],[116.363,2.715],[116.326,2.691],[116.302,2.637],[116.292,2.632],[116.297,2.588],[116.309,2.574],[116.304,2.546],[116.271,2.484],[116.26,2.478],[116.242,2.489],[116.229,2.483],[116.195,2.44],[116.188,2.414],[116.178,2.405],[116.123,2.394],[116.104,2.357],[116.086,2.348],[116.08,2.333],[116.06,2.316],[116.062,2.303],[116.035,2.256],[115.989,2.262],[116.011,2.192],[116.055,2.146],[116.07,2.161],[116.097,2.17],[116.148,2.153],[116.158,2.123],[116.19,2.125],[116.217,2.113],[116.228,2.096],[116.252,2.106],[116.286,2.102],[116.299,2.12],[116.314,2.115],[116.332,2.15],[116.347,2.162],[116.349,2.178],[116.303,2.21],[116.29,2.236],[116.304,2.262],[116.335,2.291],[116.402,2.298],[116.413,2.282],[116.429,2.289],[116.455,2.277],[116.477,2.291],[116.467,2.325],[116.483,2.337],[116.498,2.334],[116.504,2.348],[116.498,2.357],[116.502,2.382],[116.487,2.399],[116.497,2.407],[116.491,2.444],[116.497,2.452],[116.526,2.447],[116.567,2.453],[116.567,2.437],[116.578,2.427],[116.628,2.415],[116.63,2.391],[116.642,2.39],[116.65,2.405],[116.663,2.384],[116.686,2.399],[116.708,2.379],[116.718,2.383],[116.718,2.405],[116.733,2.41],[116.731,2.424],[116.752,2.438],[116.757,2.484],[116.792,2.509],[116.806,2.498],[116.84,2.52],[116.876,2.507],[116.888,2.477],[116.898,2.501],[116.929,2.503],[116.929,2.493],[116.937,2.496],[116.962,2.476],[116.968,2.446],[116.982,2.44],[116.983,2.432],[117.0,2.437],[117.024,2.459],[117.015,2.498],[117.028,2.506],[117.032,2.526],[117.056,2.551],[117.098,2.536],[117.134,2.536],[117.146,2.54],[117.157,2.556],[117.164,2.552],[117.171,2.562],[117.191,2.56],[117.206,2.569],[117.222,2.555],[117.222,2.545],[117.206,2.545],[117.209,2.53],[117.195,2.523],[117.192,2.497],[117.229,2.487],[117.231,2.479],[117.288,2.492],[117.283,2.504],[117.298,2.509],[117.307,2.533],[117.318,2.536],[117.33,2.523],[117.335,2.535],[117.364,2.539],[117.393,2.561],[117.411,2.504],[117.433,2.502],[117.442,2.519],[117.455,2.51],[117.462,2.479],[117.475,2.519],[117.471,2.531],[117.495,2.532],[117.499,2.522],[117.54,2.521],[117.572,2.502],[117.588,2.517],[117.609,2.522],[117.67,2.448],[117.688,2.406],[117.705,2.397],[117.721,2.346],[117.747,2.327],[117.761,2.335],[117.812,2.326],[117.824,2.348],[117.822,2.361],[117.864,2.393],[117.9,2.405],[117.918,2.394],[117.956,2.416],[117.959,2.427],[117.979,2.427],[117.988,2.435],[117.944,2.467],[117.888,2.538],[117.8,2.626],[117.788,2.66],[117.785,2.748],[117.746,2.752],[117.729,2.774],[117.675,2.787],[117.677,2.799],[117.732,2.808],[117.737,2.815],[117.729,2.828],[117.696,2.838],[117.702,2.844],[117.692,2.853],[117.674,2.849],[117.669,2.856],[117.684,2.867],[117.711,2.865],[117.719,2.891],[117.692,2.897],[117.692,2.903],[117.71,2.904],[117.716,2.911],[117.702,2.932],[117.675,2.932],[117.673,2.939],[117.696,2.952],[117.663,2.964],[117.671,2.974],[117.667,2.988],[117.635,2.979],[117.614,2.982],[117.604,2.973],[117.587,2.972],[117.576,2.981],[117.603,3.01],[117.599,3.016],[117.619,3.018],[117.62,3.047],[117.627,3.05],[117.622,3.06],[117.571,3.046],[117.55,3.054],[117.544,3.068],[117.521,3.068],[117.441,3.049],[117.435,3.052],[117.445,3.079],[117.479,3.098],[117.45,3.123],[117.465,3.129],[117.445,3.161],[117.424,3.173],[117.4,3.161],[117.368,3.181],[117.339,3.181],[117.321,3.162],[117.316,3.165],[117.308,3.207],[117.336,3.213],[117.348,3.226],[117.379,3.229],[117.4,3.261],[117.418,3.247],[117.455,3.278],[117.461,3.272],[117.516,3.276],[117.524,3.296],[117.504,3.322],[117.445,3.341],[117.398,3.314],[117.385,3.319],[117.379,3.308],[117.392,3.342],[117.372,3.356],[117.372,3.371],[117.353,3.367],[117.33,3.376],[117.328,3.402],[117.312,3.413],[117.305,3.409]]],[[[117.628,2.993],[117.62,2.988],[117.636,2.984],[117.628,2.993]]],[[[117.64,2.992],[117.636,2.993],[117.643,2.99],[117.64,2.992]]],[[[117.448,3.061],[117.447,3.065],[117.44,3.055],[117.448,3.061]]],[[[117.477,3.064],[117.482,3.069],[117.465,3.06],[117.477,3.064]]],[[[117.441,3.057],[117.447,3.069],[117.44,3.064],[117.441,3.057]]],[[[117.493,3.072],[117.486,3.07],[117.495,3.073],[117.493,3.072]]],[[[117.441,3.066],[117.447,3.07],[117.445,3.073],[117.441,3.066]]],[[[117.532,3.073],[117.517,3.074],[117.515,3.072],[117.532,3.073]]],[[[117.538,3.078],[117.53,3.074],[117.547,3.074],[117.538,3.078]]],[[[117.507,3.077],[117.498,3.072],[117.516,3.074],[117.507,3.077]]],[[[117.448,3.071],[117.462,3.082],[117.448,3.079],[117.448,3.071]]],[[[117.623,3.078],[117.622,3.082],[117.622,3.08],[117.623,3.078]]],[[[117.631,3.083],[117.623,3.083],[117.624,3.077],[117.639,3.07],[117.631,3.083]]],[[[117.608,3.065],[117.624,3.073],[117.603,3.084],[117.551,3.072],[117.569,3.051],[117.608,3.065]]],[[[117.496,3.08],[117.495,3.084],[117.494,3.082],[117.496,3.08]]],[[[117.494,3.083],[117.466,3.08],[117.449,3.068],[117.45,3.058],[117.496,3.075],[117.494,3.083]]],[[[117.483,3.084],[117.481,3.088],[117.472,3.084],[117.483,3.084]]],[[[117.49,3.094],[117.486,3.093],[117.495,3.092],[117.49,3.094]]],[[[117.589,3.084],[117.606,3.087],[117.606,3.095],[117.572,3.088],[117.589,3.084]]],[[[117.529,3.098],[117.506,3.094],[117.499,3.082],[117.519,3.075],[117.568,3.083],[117.565,3.093],[117.529,3.098]]],[[[117.53,3.1],[117.528,3.101],[117.521,3.101],[117.53,3.1]]],[[[117.56,3.1],[117.559,3.103],[117.556,3.102],[117.56,3.1]]],[[[117.551,3.102],[117.537,3.101],[117.556,3.098],[117.551,3.102]]],[[[117.508,3.102],[117.489,3.095],[117.497,3.092],[117.508,3.102]]],[[[117.5,3.102],[117.504,3.107],[117.498,3.104],[117.5,3.102]]],[[[117.483,3.109],[117.483,3.107],[117.484,3.109],[117.483,3.109]]],[[[117.488,3.107],[117.488,3.111],[117.483,3.106],[117.488,3.107]]],[[[117.479,3.106],[117.479,3.109],[117.477,3.111],[117.479,3.106]]],[[[117.472,3.114],[117.471,3.112],[117.473,3.112],[117.472,3.114]]],[[[117.587,3.111],[117.56,3.106],[117.57,3.097],[117.587,3.111]]],[[[117.522,3.118],[117.515,3.115],[117.533,3.113],[117.522,3.118]]],[[[117.597,3.126],[117.582,3.12],[117.6,3.106],[117.621,3.113],[117.614,3.124],[117.597,3.126]]],[[[117.618,3.128],[117.617,3.129],[117.616,3.128],[117.618,3.128]]],[[[117.629,3.159],[117.627,3.159],[117.628,3.158],[117.629,3.159]]],[[[117.63,3.159],[117.631,3.158],[117.632,3.16],[117.63,3.159]]],[[[117.63,3.161],[117.628,3.161],[117.627,3.16],[117.63,3.161]]],[[[117.4,3.319],[117.392,3.319],[117.396,3.316],[117.4,3.319]]],[[[117.489,3.408],[117.449,3.402],[117.453,3.348],[117.501,3.344],[117.502,3.389],[117.498,3.405],[117.489,3.408]]],[[[117.659,3.527],[117.641,3.527],[117.654,3.524],[117.659,3.527]]],[[[117.568,3.546],[117.575,3.548],[117.559,3.551],[117.568,3.546]]],[[[117.445,3.55],[117.416,3.557],[117.412,3.547],[117.446,3.534],[117.442,3.51],[117.462,3.515],[117.486,3.498],[117.51,3.505],[117.547,3.471],[117.606,3.474],[117.613,3.481],[117.609,3.501],[117.568,3.52],[117.5,3.546],[117.445,3.55]]],[[[117.85,3.584],[117.855,3.576],[117.856,3.581],[117.85,3.584]]],[[[117.622,3.576],[117.562,3.588],[117.543,3.575],[117.506,3.585],[117.535,3.562],[117.573,3.558],[117.62,3.537],[117.659,3.546],[117.663,3.553],[117.656,3.56],[117.622,3.576]]],[[[117.817,3.577],[117.799,3.589],[117.759,3.567],[117.752,3.533],[117.763,3.511],[117.826,3.476],[117.843,3.455],[117.864,3.448],[117.874,3.471],[117.857,3.505],[117.855,3.528],[117.817,3.577]]],[[[117.493,3.569],[117.495,3.575],[117.459,3.59],[117.469,3.574],[117.493,3.569]]]]},"properties":{"namobj":"Bulungan","wadmkk":"Bulungan","wadmpr":"Kalimantan Utara","kdpkab":"65.01"}}]}